CCSDS_OMM_VERS = 2.0
CREATION_DATE  = 
ORIGINATOR     = 

OBJECT_NAME    = BEE-1000
OBJECT_ID      = 2025-274A
CENTER_NAME    = EARTH
REF_FRAME      = TEME
TIME_SYSTEM    = UTC
MEAN_ELEMENT_THEORY = SGP/SGP4

EPOCH          = 2025-12-20T19:14:57.709248
MEAN_MOTION    = 14.91685415
ECCENTRICITY   = .0010777
INCLINATION    = 97.7403
RA_OF_ASC_NODE = 281.8419
ARG_OF_PERICENTER = 221.4492
MEAN_ANOMALY   = 138.5910

EPHEMERIS_TYPE = 0
CLASSIFICATION_TYPE = U
NORAD_CAT_ID   = 66650
ELEMENT_SET_NO = 999
REV_AT_EPOCH   = 360
BSTAR          = .10750782E-3
MEAN_MOTION_DOT = .1026E-4
MEAN_MOTION_DDOT = 0

CCSDS_OMM_VERS = 2.0
CREATION_DATE  = 
ORIGINATOR     = 

OBJECT_NAME    = 2025-274B
OBJECT_ID      = 2025-274B
CENTER_NAME    = EARTH
REF_FRAME      = TEME
TIME_SYSTEM    = UTC
MEAN_ELEMENT_THEORY = SGP/SGP4

EPOCH          = 2025-12-20T20:49:01.714944
MEAN_MOTION    = 14.91848965
ECCENTRICITY   = .00110786
INCLINATION    = 97.7398
RA_OF_ASC_NODE = 281.9083
ARG_OF_PERICENTER = 220.1238
MEAN_ANOMALY   = 139.9164

EPHEMERIS_TYPE = 0
CLASSIFICATION_TYPE = U
NORAD_CAT_ID   = 66651
ELEMENT_SET_NO = 999
REV_AT_EPOCH   = 361
BSTAR          = .2356973E-3
MEAN_MOTION_DOT = .2326E-4
MEAN_MOTION_DDOT = 0

CCSDS_OMM_VERS = 2.0
CREATION_DATE  = 
ORIGINATOR     = 

OBJECT_NAME    = 2025-274C
OBJECT_ID      = 2025-274C
CENTER_NAME    = EARTH
REF_FRAME      = TEME
TIME_SYSTEM    = UTC
MEAN_ELEMENT_THEORY = SGP/SGP4

EPOCH          = 2025-12-20T17:33:02.810592
MEAN_MOTION    = 14.91940961
ECCENTRICITY   = .00106091
INCLINATION    = 97.7402
RA_OF_ASC_NODE = 281.7806
ARG_OF_PERICENTER = 227.4927
MEAN_ANOMALY   = 132.5397

EPHEMERIS_TYPE = 0
CLASSIFICATION_TYPE = U
NORAD_CAT_ID   = 66652
ELEMENT_SET_NO = 999
REV_AT_EPOCH   = 359
BSTAR          = .18300041E-3
MEAN_MOTION_DOT = .1798E-4
MEAN_MOTION_DDOT = 0

CCSDS_OMM_VERS = 2.0
CREATION_DATE  = 
ORIGINATOR     = 

OBJECT_NAME    = 2025-274D
OBJECT_ID      = 2025-274D
CENTER_NAME    = EARTH
REF_FRAME      = TEME
TIME_SYSTEM    = UTC
MEAN_ELEMENT_THEORY = SGP/SGP4

EPOCH          = 2025-12-20T20:46:04.926720
MEAN_MOTION    = 14.91940421
ECCENTRICITY   = .00115502
INCLINATION    = 97.7401
RA_OF_ASC_NODE = 281.9121
ARG_OF_PERICENTER = 223.3854
MEAN_ANOMALY   = 136.6457

EPHEMERIS_TYPE = 0
CLASSIFICATION_TYPE = U
NORAD_CAT_ID   = 66653
ELEMENT_SET_NO = 999
REV_AT_EPOCH   = 361
BSTAR          = .1535132E-3
MEAN_MOTION_DOT = .1499E-4
MEAN_MOTION_DDOT = 0

CCSDS_OMM_VERS = 2.0
CREATION_DATE  = 
ORIGINATOR     = 

OBJECT_NAME    = JACK E
OBJECT_ID      = 2025-274E
CENTER_NAME    = EARTH
REF_FRAME      = TEME
TIME_SYSTEM    = UTC
MEAN_ELEMENT_THEORY = SGP/SGP4

EPOCH          = 2025-12-20T20:42:04.524768
MEAN_MOTION    = 14.92121282
ECCENTRICITY   = .00121352
INCLINATION    = 97.7405
RA_OF_ASC_NODE = 281.9164
ARG_OF_PERICENTER = 225.2906
MEAN_ANOMALY   = 134.7326

EPHEMERIS_TYPE = 0
CLASSIFICATION_TYPE = U
NORAD_CAT_ID   = 66654
ELEMENT_SET_NO = 999
REV_AT_EPOCH   = 361
BSTAR          = .15970463E-3
MEAN_MOTION_DOT = .1569E-4
MEAN_MOTION_DDOT = 0

CCSDS_OMM_VERS = 2.0
CREATION_DATE  = 
ORIGINATOR     = 

OBJECT_NAME    = 2025-274F
OBJECT_ID      = 2025-274F
CENTER_NAME    = EARTH
REF_FRAME      = TEME
TIME_SYSTEM    = UTC
MEAN_ELEMENT_THEORY = SGP/SGP4

EPOCH          = 2025-12-20T20:48:34.641504
MEAN_MOTION    = 14.91178195
ECCENTRICITY   = .0004859
INCLINATION    = 97.7332
RA_OF_ASC_NODE = 281.9048
ARG_OF_PERICENTER = 356.2487
MEAN_ANOMALY   = 3.8694

EPHEMERIS_TYPE = 0
CLASSIFICATION_TYPE = U
NORAD_CAT_ID   = 66655
ELEMENT_SET_NO = 999
REV_AT_EPOCH   = 361
BSTAR          = .5516133E-5
MEAN_MOTION_DOT = 0
MEAN_MOTION_DDOT = 0

CCSDS_OMM_VERS = 2.0
CREATION_DATE  = 
ORIGINATOR     = 

OBJECT_NAME    = 2025-274G
OBJECT_ID      = 2025-274G
CENTER_NAME    = EARTH
REF_FRAME      = TEME
TIME_SYSTEM    = UTC
MEAN_ELEMENT_THEORY = SGP/SGP4

EPOCH          = 2025-12-20T19:01:09.400224
MEAN_MOTION    = 14.92315893
ECCENTRICITY   = .00127012
INCLINATION    = 97.7403
RA_OF_ASC_NODE = 281.8537
ARG_OF_PERICENTER = 227.3803
MEAN_ANOMALY   = 132.6346

EPHEMERIS_TYPE = 0
CLASSIFICATION_TYPE = U
NORAD_CAT_ID   = 66656
ELEMENT_SET_NO = 999
REV_AT_EPOCH   = 360
BSTAR          = .16073839E-3
MEAN_MOTION_DOT = .1588E-4
MEAN_MOTION_DDOT = 0

CCSDS_OMM_VERS = 2.0
CREATION_DATE  = 
ORIGINATOR     = 

OBJECT_NAME    = SPIRONE
OBJECT_ID      = 2025-274H
CENTER_NAME    = EARTH
REF_FRAME      = TEME
TIME_SYSTEM    = UTC
MEAN_ELEMENT_THEORY = SGP/SGP4

EPOCH          = 2025-12-20T18:56:59.578944
MEAN_MOTION    = 14.92494728
ECCENTRICITY   = .00108252
INCLINATION    = 97.7400
RA_OF_ASC_NODE = 281.8570
ARG_OF_PERICENTER = 245.5700
MEAN_ANOMALY   = 114.4390

EPHEMERIS_TYPE = 0
CLASSIFICATION_TYPE = U
NORAD_CAT_ID   = 66657
ELEMENT_SET_NO = 999
REV_AT_EPOCH   = 360
BSTAR          = .14714494E-3
MEAN_MOTION_DOT = .1455E-4
MEAN_MOTION_DDOT = 0

CCSDS_OMM_VERS = 2.0
CREATION_DATE  = 
ORIGINATOR     = 

OBJECT_NAME    = 2025-274J
OBJECT_ID      = 2025-274J
CENTER_NAME    = EARTH
REF_FRAME      = TEME
TIME_SYSTEM    = UTC
MEAN_ELEMENT_THEORY = SGP/SGP4

EPOCH          = 2025-12-20T18:52:58.525536
MEAN_MOTION    = 14.92664797
ECCENTRICITY   = .00113384
INCLINATION    = 97.7400
RA_OF_ASC_NODE = 281.8607
ARG_OF_PERICENTER = 248.8674
MEAN_ANOMALY   = 111.1334

EPHEMERIS_TYPE = 0
CLASSIFICATION_TYPE = U
NORAD_CAT_ID   = 66658
ELEMENT_SET_NO = 999
REV_AT_EPOCH   = 360
BSTAR          = .13432413E-3
MEAN_MOTION_DOT = .1329E-4
MEAN_MOTION_DDOT = 0

CCSDS_OMM_VERS = 2.0
CREATION_DATE  = 
ORIGINATOR     = 

OBJECT_NAME    = JACK K
OBJECT_ID      = 2025-274K
CENTER_NAME    = EARTH
REF_FRAME      = TEME
TIME_SYSTEM    = UTC
MEAN_ELEMENT_THEORY = SGP/SGP4

EPOCH          = 2025-12-20T18:48:39.993408
MEAN_MOTION    = 14.92849632
ECCENTRICITY   = .00120482
INCLINATION    = 97.7402
RA_OF_ASC_NODE = 281.8653
ARG_OF_PERICENTER = 250.4202
MEAN_ANOMALY   = 109.5717

EPHEMERIS_TYPE = 0
CLASSIFICATION_TYPE = U
NORAD_CAT_ID   = 66659
ELEMENT_SET_NO = 999
REV_AT_EPOCH   = 360
BSTAR          = .12555127E-3
MEAN_MOTION_DOT = .1245E-4
MEAN_MOTION_DDOT = 0

CCSDS_OMM_VERS = 2.0
CREATION_DATE  = 
ORIGINATOR     = 

OBJECT_NAME    = K-HERO
OBJECT_ID      = 2025-274L
CENTER_NAME    = EARTH
REF_FRAME      = TEME
TIME_SYSTEM    = UTC
MEAN_ELEMENT_THEORY = SGP/SGP4

EPOCH          = 2025-12-20T18:45:10.711008
MEAN_MOTION    = 14.93000619
ECCENTRICITY   = .00126544
INCLINATION    = 97.7407
RA_OF_ASC_NODE = 281.8694
ARG_OF_PERICENTER = 251.1884
MEAN_ANOMALY   = 108.7963

EPHEMERIS_TYPE = 0
CLASSIFICATION_TYPE = U
NORAD_CAT_ID   = 66660
ELEMENT_SET_NO = 999
REV_AT_EPOCH   = 360
BSTAR          = .12043284E-3
MEAN_MOTION_DOT = .1197E-4
MEAN_MOTION_DDOT = 0

CCSDS_OMM_VERS = 2.0
CREATION_DATE  = 
ORIGINATOR     = 

OBJECT_NAME    = SNUGLITE-III
OBJECT_ID      = 2025-274M
CENTER_NAME    = EARTH
REF_FRAME      = TEME
TIME_SYSTEM    = UTC
MEAN_ELEMENT_THEORY = SGP/SGP4

EPOCH          = 2025-12-20T18:41:49.245216
MEAN_MOTION    = 14.93134387
ECCENTRICITY   = .00132617
INCLINATION    = 97.7402
RA_OF_ASC_NODE = 281.8718
ARG_OF_PERICENTER = 252.4411
MEAN_ANOMALY   = 107.5360

EPHEMERIS_TYPE = 0
CLASSIFICATION_TYPE = U
NORAD_CAT_ID   = 66661
ELEMENT_SET_NO = 999
REV_AT_EPOCH   = 360
BSTAR          = .14230197E-3
MEAN_MOTION_DOT = .1429E-4
MEAN_MOTION_DDOT = 0

