BEE-1000                
1 66650U 25274A   25354.80205682  .00001026  00000+0  10751-3 0  9998
2 66650  97.7403 281.8419 0010777 221.4492 138.5910 14.91685415  3604
2025-274B               
1 66651U 25274B   25354.86738096  .00002326  00000+0  23570-3 0  9992
2 66651  97.7398 281.9083 0011078 220.1238 139.9164 14.91848965  3613
2025-274C               
1 66652U 25274C   25354.73128253  .00001798  00000+0  18300-3 0  9994
2 66652  97.7402 281.7806 0010609 227.4927 132.5397 14.91940961  3598
2025-274D               
1 66653U 25274D   25354.86533480  .00001499  00000+0  15351-3 0  9992
2 66653  97.7401 281.9121 0011550 223.3854 136.6457 14.91940421  3616
JACK E                  
1 66654U 25274E   25354.86255237  .00001569  00000+0  15970-3 0  9999
2 66654  97.7405 281.9164 0012135 225.2906 134.7326 14.92121282  3618
2025-274F               
1 66655U 25274F   25354.86706761  .00000000  00000+0  55161-5 0  9990
2 66655  97.7332 281.9048 0004859 356.2487   3.8694 14.91178195  3610
2025-274G               
1 66656U 25274G   25354.79246991  .00001588  00000+0  16074-3 0  9997
2 66656  97.7403 281.8537 0012701 227.3803 132.6346 14.92315893  3600
SPIRONE                 
1 66657U 25274H   25354.78957846  .00001455  00000+0  14714-3 0  9997
2 66657  97.7400 281.8570 0010825 245.5700 114.4390 14.92494728  3600
2025-274J               
1 66658U 25274J   25354.78678849  .00001329  00000+0  13432-3 0  9997
2 66658  97.7400 281.8607 0011338 248.8674 111.1334 14.92664797  3605
JACK K                  
1 66659U 25274K   25354.78379622  .00001245  00000+0  12555-3 0  9997
2 66659  97.7402 281.8653 0012048 250.4202 109.5717 14.92849632  3603
K-HERO                  
1 66660U 25274L   25354.78137397  .00001197  00000+0  12043-3 0  9998
2 66660  97.7407 281.8694 0012654 251.1884 108.7963 14.93000619  3601
SNUGLITE-III            
1 66661U 25274M   25354.77904219  .00001429  00000+0  14230-3 0  9991
2 66661  97.7402 281.8718 0013261 252.4411 107.5360 14.93134387  3607
